{"fetched_at":"2026-03-29T16:36:15Z","count":15609,"tles":[{"name":"STARLINK-33691","line1":"1 63462U 25070C   26087.86870554  .00017532  00000+0  64484-3 0  9997","line2":"2 63462  43.0024 151.1383 0000933 291.2951  68.7801 15.27593444 55860","category":"Starlink"}]}